ONEWEB-0403             
1 50483U 21132Q   24191.79607677  .00000037  00000+0  62351-4 0  9995
2 50483  87.9149 116.2856 0002202  82.5823 277.5559 13.18687414128366
ONEWEB-0404             
1 50484U 21132R   24191.90785502  .00000556  00000+0  15332-2 0  9994
2 50484  87.8979 161.8288 0002171  96.8936 263.2438 13.11417545122990
ONEWEB-0405             
1 50485U 21132S   24191.81188013 -.00000261  00000+0 -69392-3 0  9990
2 50485  87.9149 116.2720 0002519  78.7684 281.3731 13.18686359128767
ONEWEB-0406             
1 50486U 21132T   24191.80081899  .00000043  00000+0  75861-4 0  9999
2 50486  87.9151 116.2861 0001529  94.9046 265.2261 13.18687836128398
ONEWEB-0407             
1 50487U 21132U   24191.87038060  .00000061  00000+0  12143-3 0  9992
2 50487  87.9147 116.2732 0002223  80.3151 279.8232 13.18687758128346
ONEWEB-0409             
1 50488U 21132V   24191.90617153  .00000591  00000+0  16328-2 0  9999
2 50488  87.8969 161.8238 0001825  95.5658 264.5678 13.11417861122889
ONEWEB-0412             
1 50489U 21132W   24191.85931742  .00000055  00000+0  10781-3 0  9990
2 50489  87.9151 116.2760 0002569  78.4898 281.6523 13.18685852128430
ONEWEB-0413             
1 50490U 21132X   24191.86406227  .00000071  00000+0  14650-3 0  9995
2 50490  87.9151 116.2880 0002460  74.5605 285.5798 13.18687459128373
